NORAD_CAT_ID,OBJECT_NAME,OBJECT_TYPE,EPOCH,MEAN_MOTION,ECCENTRICITY,INCLINATION,RA_OF_ASC_NODE,ARG_OF_PERICENTER,MEAN_ANOMALY,BSTAR,MEAN_MOTION_DOT,MEAN_MOTION_DDOT,TLE_LINE0,TLE_LINE1,TLE_LINE2,SEMIMAJOR_AXIS,PERIOD,APOGEE,PERIGEE,DECAYED
53288.0,STARLINK-4162,PAYLOAD,2023-10-15 08:56:50,15.08836468,0.0001487,53.2156,158.0568,97.1032,263.0129,0.00054775,8.439e-05,0.0,0 STARLINK-4162,1 53288U 22086AY  23288.37280694  .00008439  00000-0  54775-3 0  9991,2 53288  53.2156 158.0568 0001487  97.1032 263.0129 15.08836468 68898,6917.891,95.438,540.785,538.727,0.0
53288.0,STARLINK-4162,PAYLOAD,2023-10-15 20:04:32,15.08840164,0.000144,53.2155,155.9751,98.91,261.2055,0.00056428,8.704e-05,0.0,0 STARLINK-4162,1 53288U 22086AY  23288.83648818  .00008704  00000-0  56428-3 0  9990,2 53288  53.2155 155.9751 0001440  98.9100 261.2055 15.08840164 68808,6917.88,95.438,540.741,538.749,0.0
53288.0,STARLINK-4162,PAYLOAD,2023-10-15 21:39:55,15.08841413,0.0001359,53.2148,155.678,99.5456,260.569,0.00049043,7.526e-05,0.0,0 STARLINK-4162,1 53288U 22086AY  23288.90272774  .00007526  00000-0  49043-3 0  9998,2 53288  53.2148 155.6780 0001359  99.5456 260.5690 15.08841413 68972,6917.876,95.437,540.681,538.801,0.0
53288.0,STARLINK-4162,PAYLOAD,2023-10-16 08:47:38,15.08833758,0.0001747,53.2157,153.5968,101.9167,258.2021,0.00019985,2.893e-05,0.0,0 STARLINK-4162,1 53288U 22086AY  23289.36641208  .00002893  00000-0  19985-3 0  9995,2 53288  53.2157 153.5968 0001747 101.9167 258.2021 15.08833758 68880,6917.899,95.438,540.973,538.556,0.0
53288.0,STARLINK-4162,PAYLOAD,2023-10-16 18:19:56,15.08836161,9.58e-05,53.2171,151.8116,124.0313,236.077,0.0001208,1.635e-05,0.0,0 STARLINK-4162,1 53288U 22086AY  23289.76384891  .00001635  00000-0  12080-3 0  9993,2 53288  53.2171 151.8116 0000958 124.0313 236.0770 15.08836161 69106,6917.892,95.438,540.42,539.094,0.0
53288.0,STARLINK-4162,PAYLOAD,2023-10-17 21:21:29,15.08856952,0.0001073,53.2147,146.7599,95.8951,264.2163,0.00047552,7.292e-05,0.0,0 STARLINK-4162,1 53288U 22086AY  23290.88992362  .00007292  00000-0  47552-3 0  9993,2 53288  53.2147 146.7599 0001073  95.8951 264.2163 15.08856952 69119,6917.829,95.436,540.436,538.951,0.0
53288.0,STARLINK-4162,PAYLOAD,2023-10-18 21:12:16,15.08844422,3.53e-05,53.218,142.2991,49.9406,310.1617,3.2011e-05,2.22e-06,0.0,0 STARLINK-4162,1 53288U 22086AY  23291.88352338  .00000222  00000-0  32011-4 0  9998,2 53288  53.2180 142.2991 0000353  49.9406 310.1617 15.08844422 69268,6917.867,95.437,539.976,539.488,0.0
53288.0,STARLINK-4162,PAYLOAD,2023-10-19 00:23:02,15.08846278,0.00014,53.2138,141.7041,96.1741,263.9411,3.7474e-05,3.09e-06,0.0,0 STARLINK-4162,1 53288U 22086AY  23292.01600285  .00000309  00000-0  37474-4 0  9995,2 53288  53.2138 141.7041 0001400  96.1741 263.9411 15.08846278 69449,6917.861,95.437,540.695,538.758,0.0
53288.0,STARLINK-4162,PAYLOAD,2023-10-19 21:03:02,15.08854953,0.0001305,53.2157,137.8376,89.8644,270.2498,0.00018709,2.692e-05,0.0,0 STARLINK-4162,1 53288U 22086AY  23292.87711334  .00002692  00000-0  18709-3 0  9993,2 53288  53.2157 137.8376 0001305  89.8644 270.2498 15.08854953 69414,6917.835,95.437,540.602,538.797,0.0
53288.0,STARLINK-4162,PAYLOAD,2023-10-19 22:38:26,15.08846212,0.0001768,53.2196,137.541,87.0616,273.0578,0.00053874,8.298e-05,0.0,0 STARLINK-4162,1 53288U 22086AY  23292.94335902  .00008298  00000-0  53874-3 0  9994,2 53288  53.2196 137.5410 0001768  87.0616 273.0578 15.08846212 69425,6917.861,95.437,540.949,538.503,0.0
53288.0,STARLINK-4162,PAYLOAD,2023-10-20 16:07:41,15.08828918,0.0001958,53.215,134.2671,74.7799,285.3409,-0.00011042,-2.045e-05,0.0,0 STARLINK-4162,1 53288U 22086AY  23293.67200798 -.00002045  00000-0 -11042-3 0  9996,2 53288  53.2150 134.2671 0001958  74.7799 285.3409 15.08828918 69538,6917.914,95.438,541.134,538.425,0.0
53288.0,STARLINK-4162,PAYLOAD,2023-10-20 20:53:51,15.08826497,0.0001869,53.2162,133.3746,66.7681,293.3508,-0.00013931,-2.504e-05,0.0,0 STARLINK-4162,1 53288U 22086AY  23293.87073094 -.00002504  00000-0 -13931-3 0  9994,2 53288  53.2162 133.3746 0001869  66.7681 293.3508 15.08826497 69726,6917.922,95.438,541.08,538.494,0.0
53288.0,STARLINK-4162,PAYLOAD,2023-10-21 12:47:42,15.08835768,0.000174,53.2166,130.401,84.6785,275.4406,-6.3123e-05,-1.292e-05,0.0,0 STARLINK-4162,1 53288U 22086AY  23294.53313642 -.00001292  00000-0 -63123-4 0  9996,2 53288  53.2166 130.4010 0001740  84.6785 275.4406 15.08835768 69824,6917.893,95.438,540.962,538.555,0.0
53288.0,STARLINK-4162,PAYLOAD,2023-10-21 19:09:16,15.08702748,0.0002473,53.2157,129.2133,74.0381,286.0884,0.0020596,0.0003252,0.0,0 STARLINK-4162,1 53288U 22086AY  23294.79811209  .00032520  00000-0  20596-2 0  9997,2 53288  53.2157 129.2133 0002473  74.0381 286.0884 15.08702748 69701,6918.3,95.446,541.876,538.454,0.0
53288.0,STARLINK-4162,PAYLOAD,2023-10-21 22:20:01,15.08844571,0.000153,53.2148,128.6192,90.694,269.4228,6.0041e-05,6.68e-06,0.0,0 STARLINK-4162,1 53288U 22086AY  23294.93056756  .00000668  00000-0  60041-4 0  9990,2 53288  53.2148 128.6192 0001530  90.6940 269.4228 15.08844571 69884,6917.866,95.437,540.79,538.673,0.0
53288.0,STARLINK-4162,PAYLOAD,2023-10-22 06:16:57,15.08831732,0.0001908,53.2152,127.1308,81.1801,278.9407,0.00018417,2.644e-05,0.0,0 STARLINK-4162,1 53288U 22086AY  23295.26177729  .00002644  00000-0  18417-3 0  9996,2 53288  53.2152 127.1308 0001908  81.1801 278.9407 15.08831732 69779,6917.906,95.438,541.091,538.451,0.0
53288.0,STARLINK-4162,PAYLOAD,2023-10-22 19:00:02,15.08831279,0.0001585,53.2158,124.7522,88.3599,271.7575,0.00018353,2.633e-05,0.0,0 STARLINK-4162,1 53288U 22086AY  23295.79169786  .00002633  00000-0  18353-3 0  9995,2 53288  53.2158 124.7522 0001585  88.3599 271.7575 15.08831279 70012,6917.907,95.438,540.869,538.676,0.0
53288.0,STARLINK-4162,PAYLOAD,2023-10-23 12:29:16,15.08845501,0.0001644,53.215,121.4813,88.5332,271.5848,0.00023954,3.527e-05,0.0,0 STARLINK-4162,1 53288U 22086AY  23296.52033364  .00003527  00000-0  23954-3 0  9995,2 53288  53.2150 121.4813 0001644  88.5332 271.5848 15.08845501 69960,6917.864,95.437,540.866,538.591,0.0
53288.0,STARLINK-4162,PAYLOAD,2023-10-23 20:26:12,15.0885418,0.0001571,53.2153,119.9946,86.562,273.5552,0.00022761,3.338e-05,0.0,0 STARLINK-4162,1 53288U 22086AY  23296.85152794  .00003338  00000-0  22761-3 0  9995,2 53288  53.2153 119.9946 0001571  86.5620 273.5552 15.08854180 70171,6917.837,95.437,540.789,538.615,0.0
53288.0,STARLINK-4162,PAYLOAD,2023-10-24 12:20:03,15.08843364,0.0001582,53.2151,117.0206,89.8141,270.3033,0.00013558,1.871e-05,0.0,0 STARLINK-4162,1 53288U 22086AY  23297.51393138  .00001871  00000-0  13558-3 0  9992,2 53288  53.2151 117.0206 0001582  89.8141 270.3033 15.08843364 70118,6917.87,95.437,540.83,538.641,0.0
53288.0,STARLINK-4162,PAYLOAD,2023-10-24 13:55:26,15.08844337,0.000157,53.2152,116.7236,88.5879,271.5293,0.00015424,2.168e-05,0.0,0 STARLINK-4162,1 53288U 22086AY  23297.58017120  .00002168  00000-0  15424-3 0  9997,2 53288  53.2152 116.7236 0001570  88.5879 271.5293 15.08844337 70289,6917.867,95.437,540.818,538.646,0.0
53288.0,STARLINK-4162,PAYLOAD,2023-10-25 13:46:13,15.08841426,0.0001548,53.2153,112.2633,87.5971,272.5198,2.228e-05,6.7e-07,0.0,0 STARLINK-4162,1 53288U 22086AY  23298.57376888  .00000067  00000-0  22280-4 0  9991,2 53288  53.2153 112.2633 0001548  87.5971 272.5198 15.08841426 70279,6917.876,95.437,540.812,538.67,0.0
53288.0,STARLINK-4162,PAYLOAD,2023-10-25 21:43:09,15.0884424,0.0001582,53.2153,110.7766,85.6321,274.4852,8.2615e-05,1.027e-05,0.0,0 STARLINK-4162,1 53288U 22086AY  23298.90496827  .00001027  00000-0  82615-4 0  9999,2 53288  53.2153 110.7766 0001582  85.6321 274.4852 15.08844240 70483,6917.867,95.437,540.827,538.638,0.0
53288.0,STARLINK-4162,PAYLOAD,2023-10-26 13:37:00,15.08839746,0.0001563,53.2154,107.8027,86.1748,273.9423,9.3686e-05,1.203e-05,0.0,0 STARLINK-4162,1 53288U 22086AY  23299.56737096  .00001203  00000-0  93686-4 0  9994,2 53288  53.2154 107.8027 0001563  86.1748 273.9423 15.08839746 70583,6917.881,95.438,540.827,538.665,0.0
53288.0,STARLINK-4162,PAYLOAD,2023-10-26 21:33:56,15.08845005,0.0001528,53.2154,106.3157,84.5725,275.5442,0.00013598,1.877e-05,0.0,0 STARLINK-4162,1 53288U 22086AY  23299.89856793  .00001877  00000-0  13598-3 0  9996,2 53288  53.2154 106.3157 0001528  84.5725 275.5442 15.08845005 70639,6917.865,95.437,540.787,538.673,0.0
53288.0,STARLINK-4162,PAYLOAD,2023-10-27 03:55:28,15.08843191,0.0001498,53.2156,105.1261,85.891,274.2253,0.00010607,1.401e-05,0.0,0 STARLINK-4162,1 53288U 22086AY  23300.16352896  .00001401  00000-0  10607-3 0  9995,2 53288  53.2156 105.1261 0001498  85.8910 274.2253 15.08843191 70517,6917.871,95.437,540.772,538.699,0.0
53288.0,STARLINK-4162,PAYLOAD,2023-10-28 03:46:15,15.08846923,0.0001532,53.2157,100.6652,78.3558,281.7606,0.00013827,1.914e-05,0.0,0 STARLINK-4162,1 53288U 22086AY  23301.15712565  .00001914  00000-0  13827-3 0  9994,2 53288  53.2157 100.6652 0001532  78.3558 281.7606 15.08846923 70821,6917.859,95.437,540.784,538.664,0.0
53288.0,STARLINK-4162,PAYLOAD,2023-10-28 16:29:21,15.08832077,0.0001561,53.2156,98.2862,72.8768,287.2395,-7.5069e-05,-1.482e-05,0.0,0 STARLINK-4162,1 53288U 22086AY  23301.68705452 -.00001482  00000-0 -75069-4 0  9998,2 53288  53.2156  98.2862 0001561  72.8768 287.2395 15.08832077 70741,6917.905,95.438,540.849,538.69,0.0
53288.0,STARLINK-4162,PAYLOAD,2023-10-29 03:37:03,15.08842219,0.0001544,53.2157,96.205,79.3679,280.7487,5.1954e-05,5.39e-06,0.0,0 STARLINK-4162,1 53288U 22086AY  23302.15072989  .00000539  00000-0  51954-4 0  9990,2 53288  53.2157  96.2050 0001544  79.3679 280.7487 15.08842219 70810,6917.874,95.437,540.807,538.67,0.0
53288.0,STARLINK-4162,PAYLOAD,2023-10-29 14:44:44,15.08849111,0.0001501,53.2147,94.1252,77.1168,282.9992,0.00012424,1.69e-05,0.0,0 STARLINK-4162,1 53288U 22086AY  23302.61440572  .00001690  00000-0  12424-3 0  9995,2 53288  53.2147  94.1252 0001501  77.1168 282.9992 15.08849111 71041,6917.853,95.437,540.756,538.679,0.0
